STARLINK-2047
1 17355C 21005G   21326.10790828  .00009218  00000-0  64551-3 0  3269
2 17355  53.0514 213.3762 0002066  58.8658  94.5712 15.04747050    14
